#dP2023  4 26 12  0  0.00000000      96 __u+U ITR00 EXT  IAC
## 2259 302400.00000000   900.00000000 60060 0.5000000000000
+  120   C06C07C08C09C10C11C12C13C14C16C19C20C21C22C23C24C25
+        C26C27C28C29C30C32C33C34C35C36C37C38C39C40C41C42C43
+        C44C45C46E01E02E03E04E05E07E08E09E10E11E12E13E14E15
+        E18E19E21E24E25E26E27E30E31E33E34E36G01G02G03G04G05
+        G06G07G08G09G10G11G12G13G14G15G16G17G18G19G20G21G22
+        G23G24G25G26G27G28G29G30G31G32J02J03J04R01R02R03R04
+        R05R07R08R09R11R12R13R14R15R16R17R18R19R20R21R22R24
+        R25  0  0  0  0  0  0  0  0  0  0  0  0  0  0  0  0
++        11 10  9  9 10  7  8  8  8 10  8  9  7  8  9  8  7
++         8  9  9  9 10  9  9  8  8  9  8  9  9  8  8  8  7
++         8  8  8  7  6  6  7  8  8  7  8  7  7  6  6  6  5
++        14  7  7  7  6  7  6  7  7  6  7  8  5  6  6  6  7
++         7  8  6  6  6  8  7  7  6  7  7  7  7  6  6  7  8
++         6  5  6  7  6  7  7  7 10  7  8  9  8  9  7  6  9
++         7  8  9  9  7  9  9  9  8  8  8  6  7  8  8  9  6
++         9  0  0  0  0  0  0  0  0  0  0  0  0  0  0  0  0
%c M  cc GPS ccc cccc cccc cccc cccc ccccc ccccc ccccc ccccc
%c cc cc ccc ccc cccc cccc cccc cccc ccccc ccccc ccccc ccccc
%f  0.0000000  0.000000000  0.00000000000  0.000000000000000
%f  0.0000000  0.000000000  0.00000000000  0.000000000000000
%i    0    0    0    0      0      0      0      0         0
%i    0    0    0    0      0      0      0      0         0
/* IAC                                ULTRA-RAPID PREDICTION
/* S/V CLOCKS ARE ALIGNED TO GNSS TIME                      
/* G:C1WC2W R:C1PC2P E:C1XC5X C:C2IC6I J:C1CC2S             
/* PCV:IGS20_2247 OL/AL:FES2004  NONE     YN ORB:CoN CLK:CoN
*  2023 04 26 16 15  0.00000000
PC06  -3552.933599  38045.647379  18158.092317   -195.854676
PC07 -11671.895901  25448.852599 -31516.430698     70.306179
PC08 -19310.422579  33781.135597  16026.434123    497.856373
PC09   1857.173812  41390.355599   9693.650078    722.569706
PC10  -2440.592244  26997.812982 -31999.177229    -43.024774
PC11 -16851.973173 -19433.445138 -10780.729169    321.910352
PC12  -7311.974870 -26017.608008   6993.094123    597.917172
PC13 -12486.263048  33980.382859  21564.240535    261.506642
PC14 -23178.359855  -9633.865971 -12239.958856    176.272482
PC16  -5596.961887  36254.586698  21280.055323     97.457506
PC19  27391.628757   3901.665118   3548.915986   -904.329602
PC20  16669.508825  13227.669724  18051.157281    603.513975
PC21   4986.416310 -15289.967676 -22781.491045   -911.409208
PC22  22828.969280  -8150.446986 -13792.506821   -516.900328
PC23 -19877.077308  16577.858127  10434.862118   -914.162284
PC24  -4669.328783 -19007.158584  19887.330579   -124.648542
PC25 -17933.312197   -230.716991  21365.910732    114.516278
PC26   9242.045949 -25214.335359   7635.593001   -111.831084
PC27    836.285489  24061.449351 -14146.526576    131.390715
PC28 -12009.119533  11178.769180 -22573.535955     96.937706
PC29  19258.742638   9456.442975  17837.049064    112.379594
PC30  14301.109740  23912.388427   1770.683762      0.159538
PC32  -4995.235192  15345.922546  22788.662989   -572.043041
PC33 -27431.334513  -3757.468876  -3579.355757   -876.021575
PC34 -14969.390597 -23337.133922  -3067.259627    157.555338
PC35  12217.673971 -10782.299101  22636.361492    638.835976
PC36  17616.749058   1386.691693 -21577.169557   -477.337597
PC37 -10705.169485  24919.894460  -6512.554246   -786.776285
PC38 -23623.896809  34030.361672   7523.354919     74.378393
PC39  -7555.622838  32747.813640  25650.688703     -2.705364
PC40 -15990.874995  18929.169878 -34173.731038    -21.468654
PC41 -23250.249223   7933.461232  13308.471118   -900.771332
PC42 -15487.912411 -13652.421282 -18740.157371   -718.816685
PC43 -19359.148410 -10249.690917 -17288.125763     18.567502
PC44  -1505.857558 -23948.178925  14201.326256     88.095193
PC45  19755.877346 -16961.630332 -10066.503460    -90.027969
PC46   5928.103399  17770.188666 -20675.056859    -49.774594
PE01 -19433.960478  18465.345612 -12550.670677      8.014581
PE02  19078.531670 -18583.848974  12925.101000     34.648866
PE03   7810.011013 -15241.656643 -24139.148124   -673.075418
PE04  11767.702429  21921.744202  16046.222808   -109.157284
PE05  23310.717918    601.069210 -18221.040690    -73.071759
PE07 -24877.628802 -15979.113903   1536.174344    -40.568189
PE08 -11641.829489 -21810.323479 -16279.993994    -73.621360
PE09  24821.192066  16054.690856  -1342.498238      5.924948
PE10   8407.232705  23480.587181  15935.045602   -529.342612
PE11  13371.004563  13991.472948  22390.490892   1735.388015
PE12   2548.590492  28510.318517   7585.161123   -514.293700
PE13 -13042.505364 -14756.914613 -22092.821316    -18.858199
PE14 -13054.907464 -23078.251248  10684.186820    208.221817
PE15  -2367.226548 -28586.557051  -7277.366558    -17.389381
PE18    287.983459  21305.581546 -18748.356298   -120.308488
PE19 -10394.930615  13337.254418  24308.083221  -2673.595789
PE21 -27667.595252   9512.926871   4483.860358   -525.646054
PE24  20264.931109   6310.520652 -20658.737311    -65.855626
PE25  27695.943939  -9278.706148  -4811.167623   -604.004525
PE26 -16028.901490   8383.566133 -23430.765040     86.704187
PE27 -20808.880956  -5634.060122  20277.740158    -34.725120
PE30  -1080.939259 -17554.526089  23796.679943   -124.603566
PE31   1776.828888  17293.094570 -23954.630751   -522.347165
PE33  -9617.770943  25437.167199 -11708.237045   -445.414312
PE34   9489.027092 -25538.615244  11563.997980    -42.271983
PE36  15941.793697  -7506.627717  23779.523762    -47.203465
PG01  13274.775638 -15404.646658  16556.317502    190.022089
PG02   1216.383930  26533.860859   3668.414972   -602.209021
PG03  22420.257873 -13142.332477  -5288.352332   -319.621746
PG04  13842.362081  -7812.071647 -21283.417080     26.422903
PG05 -24221.386705   3159.511380 -10748.341039   -124.901356
PG06  -6011.302545 -21870.050707 -13675.780425    587.789797
PG07   6405.304727 -25070.897000  -4236.392965    192.454704
PG08  21786.936809   2654.710957  15160.748926   -119.605157
PG09   3386.089046 -15943.203974 -21033.831555   -171.787918
PG10   3953.670162  14461.074483  22086.089620    -34.466832
PG11 -13278.753097  -8923.205761 -21199.374036   -175.744828
PG12 -24199.321391  10433.960283  -3179.640110   -368.701567
PG13 -21528.160214 -11285.496723  10769.340870    511.418099
PG14   -378.943351 -16051.611428  21145.986456     37.276464
PG15 -21855.612774    291.025778  14813.820001     34.139247
PG16  23452.468195   2064.144549 -13033.053469   -505.902791
PG17  -9689.931566 -20787.222734  13734.061399    712.358022
PG18  -4742.212642  26021.884626  -1214.637184   -241.052961
PG19 -16726.996352 -20259.468892   4626.211313    308.882195
PG20 -19284.255696  -3048.638042 -17885.134258    436.865076
PG21  15190.817707  -5854.787355  21385.661325    154.085186
PG22  18432.646762  19128.966052   2553.800419    471.046333
PG23  -9205.881754  17393.625326  17770.347152     19.606739
PG24 -14341.060407  11418.477614  18719.360761   -166.571077
PG25 -16579.646151  16684.666606 -12386.187208    438.502832
PG26  14590.112835   9478.869308 -20266.016344    241.442242
PG27  22944.693916  12379.919997   5869.795845     50.342195
PG28   6113.633876  22980.926925 -11860.776353     70.793638
PG29  -7800.337707  12893.484508 -21922.012989   -597.122912
PG30  -1390.132207 -25549.611585   6691.223352   -520.412994
PG31  10691.018144  15935.530167 -18352.185041   -214.833373
PG32  13397.168926  20108.814854  11430.382568   -461.603247
PJ02 -34979.739080  20311.984564  -7220.905354     -1.660441
PJ03 -20099.319341  26805.893764 -21002.358492      2.981120
PJ04 -28868.011915  27866.709551  19132.420105     94.283389
PR01 -16961.981213   5299.875406  18314.751499     27.409843
PR02   1799.974896  11470.437742  22768.664808    -22.911994
PR03  18694.357358  11088.925916  13446.652357     76.723859
PR04  24870.971291   4765.255738  -3070.224280    184.847654
PR05  17646.048859  -4140.579387 -17940.295107    111.588204
PR07 -19248.461257 -10860.419049 -12650.183367     54.646538
PR08 -24881.227913  -4426.337790   3425.590281    -70.520504
PR09   8089.603684 -19488.488489  14290.144225    116.867510
PR11 -16407.890284   4438.631607  19034.982492    -43.618676
PR12 -18334.467990  17504.166649   2803.860938     26.763269
PR13  -9831.504106  19749.469112 -12820.008032    -34.403190
PR14   5913.392897   9848.966071 -22766.124374     24.605990
PR15  17015.818938  -5248.495588 -18244.389316     89.577015
PR16  18246.720052 -17524.588607  -3109.475610     13.945237
PR17  10512.235311  21256.908515   9357.133792    624.671771
PR18  11984.973703   7548.260624  21238.724537     78.508847
PR19   8203.277874  -8614.034573  22559.165628   -230.473953
PR20  -1637.907109 -23757.157855   9081.854336    -91.836790
PR21 -10777.260052 -20427.364584 -10854.799254     -2.950584
PR22 -12003.461478  -6848.759469 -21412.918112     81.043068
PR24   2616.266362  23943.819948  -8373.777987    165.206621
PR25  -9577.128341 -21826.426532  -9106.904154     64.298381
EOF
